OBJECT_NAME,OBJECT_ID,EPOCH,MEAN_MOTION,ECCENTRICITY,INCLINATION,RA_OF_ASC_NODE,ARG_OF_PERICENTER,MEAN_ANOMALY,EPHEMERIS_TYPE,CLASSIFICATION_TYPE,NORAD_CAT_ID,ELEMENT_SET_NO,REV_AT_EPOCH,BSTAR,MEAN_MOTION_DOT,MEAN_MOTION_DDOT
STARLINK-31312,2024-044A,2026-06-13T21:25:12.533088,15.27552013,.0000225,43.0074,233.0256,90.6180,269.4697,0,U,59152,999,12889,-.13223E-3,-.3895E-4,0
STARLINK-31308,2024-044B,2026-06-13T21:59:40.593120,15.27572901,.0000413,42.9974,236.7608,84.4156,275.6743,0,U,59153,999,12886,-.15243E-4,-.681E-5,0
STARLINK-31270,2024-044C,2026-06-13T14:31:41.605824,15.27576901,.0000684,43.0012,285.4351,275.1796,84.8977,0,U,59154,999,12826,.46515E-5,-.134E-5,0
STARLINK-31341,2024-044D,2026-06-13T19:33:48.204000,15.27582731,.00010932,43.0014,287.8760,274.2899,85.7828,0,U,59155,999,12822,.2173545E-5,-.202E-5,0
STARLINK-31338,2024-044E,2026-06-13T14:45:47.389248,15.27577804,.000141,43.0042,288.9536,267.6138,92.4552,0,U,59156,999,12819,-.12469E-4,-.605E-5,0
STARLINK-31334,2024-044F,2026-06-14T01:33:47.459232,15.27575537,.00005665,43.0022,286.3091,241.8938,118.1856,0,U,59157,999,12826,-.1824676E-4,-.764E-5,0
STARLINK-31297,2024-044G,2026-06-13T14:37:15.502080,15.27576471,.0003472,43.0246,285.4796,289.5627,70.4850,0,U,59158,999,12826,.16066E-4,.179E-5,0
STARLINK-31182,2024-044H,2026-06-14T06:59:18.827232,15.27566138,.00016042,43.0022,281.1257,277.1740,82.8929,0,U,59159,999,12837,-.33527009E-4,-.1184E-4,0
STARLINK-31327,2024-044J,2026-06-13T14:40:58.312128,15.27553817,.0001835,43.0041,285.4848,272.9861,87.0781,0,U,59160,999,12826,-.96842E-4,-.2924E-4,0
STARLINK-31256,2024-044K,2026-06-14T00:48:13.832352,15.27574954,.00011317,43.0006,282.6228,279.2456,80.8267,0,U,59161,999,12833,.14830964E-4,.146E-5,0
STARLINK-31272,2024-044L,2026-06-13T16:00:01.999584,15.27558945,.00009665,43.0027,284.7527,280.2821,199.0347,0,U,59162,999,582,.10422969E-2,.28512E-3,0
STARLINK-31278,2024-044M,2026-06-13T18:42:40.976352,15.27576368,.00030758,43.0143,284.1646,263.4627,96.5875,0,U,59163,999,12826,-.32574884E-4,-.1159E-4,0
STARLINK-31309,2024-044N,2026-06-13T01:32:33.113760,15.27560391,.00011256,43.0094,288.2536,270.2875,89.7847,0,U,59164,999,12818,-.72823829E-4,-.2264E-4,0
STARLINK-31325,2024-044P,2026-06-13T18:51:57.414816,15.27571447,.00008573,43.0032,284.2089,283.3914,76.6842,0,U,59165,999,12826,.23961386E-4,.397E-5,0
STARLINK-31342,2024-044Q,2026-06-14T01:14:07.960992,15.27573510,.00018278,43.0073,282.7612,269.4369,90.6273,0,U,59166,999,12833,-.54989424E-4,-.1775E-4,0
STARLINK-31298,2024-044R,2026-06-14T01:19:40.814400,15.27578368,.00021651,43.0089,282.7937,279.9790,80.0818,0,U,59167,999,12830,.16696944E-4,.197E-5,0
STARLINK-31322,2024-044S,2026-06-14T00:22:32.057184,15.27577676,.00008302,43.0028,283.3453,244.1668,115.9098,0,U,59168,999,12832,.15288127E-4,.159E-5,0
STARLINK-31329,2024-044T,2026-06-13T14:46:29.646624,15.27573781,.0001417,43.0052,285.5093,268.0788,91.9901,0,U,59169,999,12823,-.13249E-4,-.627E-5,0
STARLINK-31340,2024-044U,2026-06-13T22:37:08.834304,15.27559927,.0001257,43.0015,243.8902,258.7089,101.3622,0,U,59170,999,12874,-.79713E-4,-.2453E-4,0
STARLINK-31344,2024-044V,2026-06-13T14:52:02.690976,15.27559355,.0003194,43.0060,285.5353,264.7434,95.3053,0,U,59171,999,12826,-.356E-4,-.1242E-4,0
STARLINK-31348,2024-044W,2026-06-13T22:01:30.268416,15.27623823,.0002815,43.0043,236.7666,269.6010,90.4519,0,U,59172,999,12882,.61079E-3,.16606E-3,0
STARLINK-31289,2024-044X,2026-06-13T14:26:08.274624,15.27576436,.0001754,43.0116,285.4092,277.1362,82.9290,0,U,59173,999,12826,.23726E-4,.39E-5,0
STARLINK-31283,2024-044Y,2026-06-14T06:00:02.000160,15.27574937,.00012905,43.0009,234.7910,269.1292,162.9715,0,U,59174,999,550,.62577102E-4,.146E-4,0
EXO-0,2023-174DK,2026-06-14T04:50:07.993824,15.34643556,.00094153,97.3826,245.3538,172.4718,187.6669,0,U,59175,999,14458,.26848834E-3,.8946E-4,0
STARLINK-31439,2024-045A,2026-06-13T23:10:07.597344,15.27570521,.00016891,43.0019,265.5340,281.2855,78.7807,0,U,59178,999,6425,-.22208493E-4,-.873E-5,0
STARLINK-31410,2024-045B,2026-06-13T13:42:37.874016,15.27579992,.000043,43.0002,271.1985,145.8565,214.2315,0,U,59179,999,12782,.17913E-3,.4671E-4,0
STARLINK-31395,2024-045C,2026-06-13T14:14:04.958880,15.27580936,.0000343,43.0044,271.3586,174.7881,185.2975,0,U,59180,999,12782,.16163E-4,.183E-5,0
STARLINK-31486,2024-045D,2026-06-13T23:15:40.197600,15.27581172,.00015445,43.0011,265.5581,288.6687,71.3997,0,U,59181,999,12792,-.74129304E-4,-.2302E-4,0
STARLINK-31411,2024-045E,2026-06-13T23:55:27.978240,15.27584841,.00023474,42.9961,268.3692,268.9559,91.1023,0,U,59182,999,12789,-.9629735E-5,-.527E-5,0
STARLINK-31382,2024-045G,2026-06-13T23:48:05.375232,15.27556712,.00003758,43.0010,268.3252,304.7757,55.3059,0,U,59184,999,12789,.14229421E-4,.13E-5,0
