STARLINK-31312          
1 59152U 24044A   26164.89250617 -.00003895  00000+0 -13223-3 0  9993
2 59152  43.0074 233.0256 0000225  90.6180 269.4697 15.27552013128898
STARLINK-31308          
1 59153U 24044B   26164.91644205 -.00000681  00000+0 -15243-4 0  9992
2 59153  42.9974 236.7608 0000413  84.4156 275.6743 15.27572901128866
STARLINK-31270          
1 59154U 24044C   26164.60534266 -.00000134  00000+0  46515-5 0  9993
2 59154  43.0012 285.4351 0000684 275.1796  84.8977 15.27576901128264
STARLINK-31341          
1 59155U 24044D   26164.81514125 -.00000202  00000+0  21735-5 0  9992
2 59155  43.0014 287.8760 0001093 274.2899  85.7828 15.27582731128225
STARLINK-31338          
1 59156U 24044E   26164.61513182 -.00000605  00000+0 -12469-4 0  9994
2 59156  43.0042 288.9536 0001410 267.6138  92.4552 15.27577804128195
STARLINK-31334          
1 59157U 24044F   26165.06513263 -.00000764  00000+0 -18247-4 0  9991
2 59157  43.0022 286.3091 0000566 241.8938 118.1856 15.27575537128267
STARLINK-31297          
1 59158U 24044G   26164.60920720  .00000179  00000+0  16066-4 0  9996
2 59158  43.0246 285.4796 0003472 289.5627  70.4850 15.27576471128263
STARLINK-31182          
1 59159U 24044H   26165.29119013 -.00001184  00000+0 -33527-4 0  9998
2 59159  43.0022 281.1257 0001604 277.1740  82.8929 15.27566138128370
STARLINK-31327          
1 59160U 24044J   26164.61178602 -.00002924  00000+0 -96842-4 0  9996
2 59160  43.0041 285.4848 0001835 272.9861  87.0781 15.27553817128260
STARLINK-31256          
1 59161U 24044K   26165.03349343  .00000146  00000+0  14831-4 0  9996
2 59161  43.0006 282.6228 0001131 279.2456  80.8267 15.27574954128335
STARLINK-31272          
1 59162U 24044L   26164.66668981  .00028512  00000+0  10423-2 0  9995
2 59162  43.0027 284.7527 0000966 280.2821 199.0347 15.27558945  5829
STARLINK-31278          
1 59163U 24044M   26164.77964093 -.00001159  00000+0 -32575-4 0  9995
2 59163  43.0143 284.1646 0003075 263.4627  96.5875 15.27576368128266
STARLINK-31309          
1 59164U 24044N   26164.06427215 -.00002264  00000+0 -72824-4 0  9997
2 59164  43.0094 288.2536 0001125 270.2875  89.7847 15.27560391128183
STARLINK-31325          
1 59165U 24044P   26164.78608119  .00000397  00000+0  23961-4 0  9992
2 59165  43.0032 284.2089 0000857 283.3914  76.6842 15.27571447128268
STARLINK-31342          
1 59166U 24044Q   26165.05148103 -.00001775  00000+0 -54989-4 0  9993
2 59166  43.0073 282.7612 0001827 269.4369  90.6273 15.27573510128331
STARLINK-31298          
1 59167U 24044R   26165.05533350  .00000197  00000+0  16697-4 0  9995
2 59167  43.0089 282.7937 0002165 279.9790  80.0818 15.27578368128300
STARLINK-31322          
1 59168U 24044S   26165.01564881  .00000159  00000+0  15288-4 0  9998
2 59168  43.0028 283.3453 0000830 244.1668 115.9098 15.27577676128320
STARLINK-31329          
1 59169U 24044T   26164.61562091 -.00000627  00000+0 -13249-4 0  9992
2 59169  43.0052 285.5093 0001417 268.0788  91.9901 15.27573781128231
STARLINK-31340          
1 59170U 24044U   26164.94246336 -.00002453  00000+0 -79713-4 0  9998
2 59170  43.0015 243.8902 0001257 258.7089 101.3622 15.27559927128748
STARLINK-31344          
1 59171U 24044V   26164.61947559 -.00001242  00000+0 -35600-4 0  9990
2 59171  43.0060 285.5353 0003194 264.7434  95.3053 15.27559355128267
STARLINK-31348          
1 59172U 24044W   26164.91771144  .00016606  00000+0  61079-3 0  9995
2 59172  43.0043 236.7666 0002815 269.6010  90.4519 15.27623823128824
STARLINK-31289          
1 59173U 24044X   26164.60148466  .00000390  00000+0  23726-4 0  9998
2 59173  43.0116 285.4092 0001754 277.1362  82.9290 15.27576436128262
STARLINK-31283          
1 59174U 24044Y   26165.25002315  .00001460  00000+0  62577-4 0  9999
2 59174  43.0009 234.7910 0001290 269.1292 162.9715 15.27574937  5504
EXO-0                   
1 59175U 23174DK  26165.20148141  .00008946  00000+0  26849-3 0  9993
2 59175  97.3826 245.3538 0009415 172.4718 187.6669 15.34643556144580
STARLINK-31439          
1 59178U 24045A   26164.96536571 -.00000873  00000+0 -22208-4 0  9993
2 59178  43.0019 265.5340 0001689 281.2855  78.7807 15.27570521 64258
STARLINK-31410          
1 59179U 24045B   26164.57127169  .00004671  00000+0  17913-3 0  9994
2 59179  43.0002 271.1985 0000430 145.8565 214.2315 15.27579992127820
STARLINK-31395          
1 59180U 24045C   26164.59311295  .00000183  00000+0  16163-4 0  9994
2 59180  43.0044 271.3586 0000343 174.7881 185.2975 15.27580936127821
STARLINK-31486          
1 59181U 24045D   26164.96921525 -.00002302  00000+0 -74129-4 0  9992
2 59181  43.0011 265.5581 0001544 288.6687  71.3997 15.27581172127922
STARLINK-31411          
1 59182U 24045E   26164.99685160 -.00000527  00000+0 -96297-5 0  9996
2 59182  42.9961 268.3692 0002347 268.9559  91.1023 15.27584841127892
STARLINK-31382          
1 59184U 24045G   26164.99172888  .00000130  00000+0  14229-4 0  9998
2 59184  43.0010 268.3252 0000375 304.7757  55.3059 15.27556712127898
